STARLINK-35756          
1 67175U 25303N   26196.38598494  .00007054  00000+0  26562-3 0  9992
2 67175  42.9995 309.6406 0001424 264.0680  96.0009 15.27578041 32268
STARLINK-35785          
1 67176U 25303P   26196.31546002  .00010700  00000+0  39775-3 0  9996
2 67176  43.0051 309.9744 0001611 271.3248  88.7419 15.27584503 32253
STARLINK-35853          
1 67177U 25303Q   26196.38469106  .00012278  00000+0  45483-3 0  9998
2 67177  43.0013 309.6264 0002734 281.8857  78.1687 15.27586732 32262
STARLINK-35878          
1 67178U 25303R   26196.37699214  .00012865  00000+0  47623-3 0  9993
2 67178  43.0013 309.5714 0001203 252.2425 107.8295 15.27578568 32268
STARLINK-35793          
1 67179U 25303S   26196.37441694  .00014053  00000+0  51900-3 0  9995
2 67179  43.0016 309.5501 0001657 183.9166 176.1673 15.27595450 32269
STARLINK-35876          
1 67180U 25303T   26196.37313893  .00010490  00000+0  39015-3 0  9990
2 67180  43.0048 309.5448 0003086 295.4607  64.5925 15.27582150 32266
STARLINK-35766          
1 67181U 25303U   26196.29746905  .00011824  00000+0  43837-3 0  9995
2 67181  43.0023 309.8332 0005343 286.6580  73.3685 15.27582712 32259
STARLINK-35782          
1 67182U 25303V   26196.35256686  .00010931  00000+0  40606-3 0  9994
2 67182  43.0026 309.3864 0001828 281.7650  78.2997 15.27587150 32268
STARLINK-35719          
1 67183U 25303W   26196.35899989  .00007267  00000+0  27333-3 0  9994
2 67183  43.0007 309.4328 0001555 275.6297  84.4377 15.27582140 32265
STARLINK-35910          
1 67184U 25303X   26196.34872111  .00007386  00000+0  27765-3 0  9993
2 67184  43.0014 309.3557 0001409 275.0294  85.0397 15.27580394 32264
STARLINK-35859          
1 67185U 25303Y   26196.35388098  .00025976  00000+0  95017-3 0  9991
2 67185  43.0003 309.3923 0000873 251.2065 108.8692 15.27579819 32268
STARLINK-35857          
1 67186U 25303Z   26196.36928217  .00009453  00000+0  35265-3 0  9997
2 67186  43.0017 309.5111 0001506 274.2865  85.7815 15.27575144 32269
STARLINK-35880          
1 67187U 25303AA  26196.62311588  .00009834  00000+0  36635-3 0  9999
2 67187  43.0025 307.9730 0000485 234.4575 125.6232 15.27582660 32302
STARLINK-35675          
1 67188U 25303AB  26196.34757652  .00007538  00000+0  28318-3 0  9993
2 67188  43.0056 310.2133 0002210 286.8096  73.2513 15.27579957 32257
STARLINK-35889          
1 67189U 25303AC  26196.34114737  .00002464  00000+0  98988-4 0  9999
2 67189  43.0029 310.1606 0001449 277.3104  82.7583 15.27591776 32255
STARLINK-35888          
1 67190U 25303AD  26196.39626139  .00012316  00000+0  45626-3 0  9997
2 67190  42.9967 309.7102 0001313 226.3089 133.7654 15.27585616 32260
STARLINK-35716          
1 67191U 25303AE  26196.34629721  .00007927  00000+0  29729-3 0  9991
2 67191  42.9998 310.1966 0000953 248.9858 111.0892 15.27579075 32256
STARLINK-36182          
1 67192U 25304A   26197.12969715 -.00001271  00000+0 -98686-4 0  9997
2 67192  70.0003 210.6212 0003755 258.0111 102.0628 14.98331498 33093
STARLINK-36279          
1 67193U 25304B   26197.12535909 -.00001421  00000+0 -11135-3 0  9992
2 67193  70.0000 210.6015 0003920 265.9320  94.1391 14.98326596 33120
STARLINK-36284          
1 67194U 25304C   26197.14623875 -.00000438  00000+0 -28892-4 0  9991
2 67194  69.9993 210.6781 0004160 264.6631  95.4053 14.98335899 33122
STARLINK-36291          
1 67195U 25304D   26197.09633947  .00002008  00000+0  17602-3 0  9996
2 67195  69.9999 210.9010 0003807 259.5931 100.4799 14.98336119 33119
STARLINK-36239          
1 67196U 25304E   26197.15875992  .00001362  00000+0  12191-3 0  9992
2 67196  69.9994 210.7218 0004016 263.4052  96.6649 14.98332838 33129
STARLINK-36283          
1 67197U 25304F   26197.10868597  .00002687  00000+0  23282-3 0  9995
2 67197  69.9991 210.5412 0003786 268.1328  91.9397 14.98335989 33120
STARLINK-36267          
1 67198U 25304G   26197.13788838  .00000489  00000+0  48768-4 0  9993
2 67198  70.0001 210.6453 0003768 263.5411  96.5319 14.98337264 33093
STARLINK-36268          
1 67199U 25304H   26197.14640235  .00001322  00000+0  11855-3 0  9996
2 67199  69.9992 210.6724 0003862 267.2844  92.7873 14.98335088 33115
STARLINK-36270          
1 67200U 25304J   26197.12135890  .00001947  00000+0  17092-3 0  9995
2 67200  69.9993 210.5926 0003955 263.6175  96.4533 14.98335610 33128
STARLINK-36262          
1 67201U 25304K   26197.15458037 -.00000763  00000+0 -56128-4 0  9991
2 67201  69.9992 210.7055 0004659 276.7848  83.2780 14.98343289 33126
STARLINK-36263          
1 67202U 25304L   26197.16668980 -.00046089  00000+0 -38784-2 0  9990
2 67202  70.0001 210.5978 0003528 268.9528 223.8835 14.98347020  5517
STARLINK-36224          
1 67203U 25304M   26197.13371769  .00001228  00000+0  11069-3 0  9996
2 67203  69.9995 210.6223 0003873 265.7450  94.3266 14.98340346 33124
STARLINK-36185          
1 67204U 25304N   26197.11703199 -.00002171  00000+0 -17424-3 0  9992
2 67204  69.9996 210.5690 0003635 263.7546  96.3199 14.98322389 33127
STARLINK-36197          
1 67205U 25304P   26197.10449679  .00000819  00000+0  76425-4 0  9994
2 67205  69.9991 210.5264 0003774 263.9531  96.1198 14.98332943 33090
STARLINK-36056          
1 67206U 25304Q   26197.15475051  .00000422  00000+0  43173-4 0  9997
2 67206  69.9995 210.6996 0004001 265.9157  94.1545 14.98335391 33092
STARLINK-36225          
1 67207U 25304R   26197.13805293  .00000426  00000+0  43500-4 0  9999
2 67207  69.9997 210.6396 0003966 263.7805  96.2902 14.98336692 33123
STARLINK-36265          
1 67208U 25304S   26197.15041637  .00001789  00000+0  15772-3 0  9998
2 67208  69.9995 210.6904 0003356 271.5343  88.5432 14.98328010 33121
STARLINK-36226          
1 67209U 25304T   26197.09617953  .00002430  00000+0  21138-3 0  9999
2 67209  69.9991 210.9025 0004035 266.0646  94.0051 14.98333605 33119
STARLINK-36173          
1 67210U 25304U   26197.12956953  .00004528  00000+0  38709-3 0  9993
2 67210  70.0010 210.6141 0002861 264.5887  95.4945 14.98324980 33121
STARLINK-36280          
1 67211U 25304V   26197.12119366  .00001414  00000+0  12625-3 0  9993
2 67211  69.9992 210.5854 0003892 266.9427  93.1287 14.98334059 33121
STARLINK-36213          
1 67212U 25304W   26197.11285023 -.00000176  00000+0 -69681-5 0  9999
2 67212  69.9995 210.5542 0003717 268.6804  91.3929 14.98329563 33120
STARLINK-36199          
1 67213U 25304X   26197.10032197  .00002183  00000+0  19067-3 0  9990
2 67213  69.9996 210.5121 0003653 261.5249  98.5496 14.98334105 33125
STARLINK-36203          
1 67214U 25304Y   26197.15892553  .00001065  00000+0  97019-4 0  9998
2 67214  69.9994 210.7143 0003804 263.2516  96.8210 14.98331608 33124
STARLINK-36221          
1 67215U 25304Z   26197.21735279  .00001903  00000+0  16723-3 0  9990
2 67215  69.9994 210.5150 0003146 266.2490  93.8309 14.98328591 33138
STARLINK-36212          
1 67216U 25304AA  26197.16668980 -.00044781  00000+0 -37665-2 0  9999
2 67216  69.9997 210.5931 0004077 265.2298 226.7459 14.98354539  5669
STARLINK-36216          
1 67217U 25304AB  26197.13390366  .00002516  00000+0  21861-3 0  9997
2 67217  69.9992 210.6263 0003620 261.8800  98.1949 14.98329696 33110
STARLINK-36211          
1 67218U 25304AC  26197.12553822  .00002896  00000+0  25045-3 0  9994
2 67218  69.9991 210.5943 0003628 273.6754  86.3990 14.98319550 33091
DISKSAT C               
1 67219U 25305A   26196.29461953  .00004270  00000+0  27156-3 0  9999
2 67219  45.0033 293.6320 0007190 316.7444  43.2867 15.10253522 31575
DISKSAT B               
1 67220U 25305B   26196.30433323  .00000826  00000+0  66952-4 0  9994
2 67220  45.0047 294.5169 0005408 307.7719  52.2667 15.08898985 31560
DISKSAT D               
1 67221U 25305C   26196.29582238  .00000805  00000+0  65176-4 0  9997
2 67221  45.0052 294.4618 0005905 315.1614  44.8784 15.09196657 31569
DISKSAT A               
1 67222U 25305D   26196.31628894  .00004466  00000+0  28610-3 0  9998
2 67222  45.0025 293.7884 0006482 318.1858  41.8522 15.09894923 31569
TJS-23                  
1 67226U 25306A   26196.52394281  .00000013  00000+0  00000+0 0  9999
2 67226   5.5248 297.3376 0005035 195.1882 165.0385  1.00275619  2172
QPS-SAR-15 (SUKUNAMI-I) 
1 67228U 25307A   26197.02184378  .00001953  00000+0  17240-3 0  9994
2 67228  42.0069  69.5271 0010387 191.4388 168.6203 14.99197267 31017
SPACEMOBILE-006         
1 67232U 25309A   26196.34249029  .00000702  00000+0  48789-4 0  9994
2 67232  52.9937 202.6601 0010057 215.7672 144.2649 15.18653983 30874
OBZOR-R 1               
1 67234U 25310A   26193.99059211  .00000048  00000+0  14352-4 0  9990
2 67234  97.9657 200.9058 0001344 109.7870 250.3485 14.75893686 29437
HULIANWANG DIGUI-128    
1 67236U 25311A   26196.83028013 -.00000113  00000+0  24100-4 0  9991
2 67236  50.0099  12.8292 0000941  76.6869 283.4108 13.29323784 27152
HULIANWANG DIGUI-129    
1 67237U 25311B   26196.91374060 -.00000136  00000+0 -25140-4 0  9998
2 67237  50.0096  12.5844 0000862  78.8443 281.2526 13.29324922 27160
HULIANWANG DIGUI-130    
1 67238U 25311C   26196.88874125 -.00000115  00000+0  20533-4 0  9999
2 67238  50.0070  13.0759 0000970  76.4838 283.6142 13.29323644 27155
HULIANWANG DIGUI-131    
1 67239U 25311D   26196.74674804 -.00000120  00000+0  87173-5 0  9997
2 67239  50.0065  13.6507 0000976  76.4066 283.6915 13.29323425 27139
HULIANWANG DIGUI-132    
1 67240U 25311E   26197.17273191 -.00000121  00000+0  61117-5 0  9992
2 67240  50.0078  11.9242 0000936  74.2477 285.8499 13.29324130 27191
HULIANWANG DIGUI-133    
1 67241U 25311F   26196.85533348 -.00000104  00000+0  43111-4 0  9994
2 67241  50.0122  12.9909 0000917  75.7687 284.3287 13.29324127 27152
HULIANWANG DIGUI-134    
1 67242U 25311G   26196.86365534 -.00000108  00000+0  35091-4 0  9998
2 67242  50.0050  12.9179 0000948  74.2845 285.8132 13.29323854 27157
HULIANWANG DIGUI-135    
1 67243U 25311H   26196.88036610 -.00000118  00000+0  12391-4 0  9990
2 67243  50.0037  12.9801 0000949  75.9112 284.1865 13.29323637 27155
